{
    "links": {
        "self": "http://www.neowsapp.com/rest/v1/neo/3092274?api_key=iIulBulltgU6a56xZRHN4H3l9WmuAYTsLGpBGhQ2"
    },
    "id": "3092274",
    "neo_reference_id": "3092274",
    "name": "(2000 VZ44)",
    "designation": "2000 VZ44",
    "nasa_jpl_url": "http://ssd.jpl.nasa.gov/sbdb.cgi?sstr=3092274",
    "absolute_magnitude_h": 21.037,
    "estimated_diameter": {
        "kilometers": {
            "estimated_diameter_min": 0.1648750638,
            "estimated_diameter_max": 0.3686718504
        },
        "meters": {
            "estimated_diameter_min": 164.8750637992,
            "estimated_diameter_max": 368.6718504496
        },
        "miles": {
            "estimated_diameter_min": 0.1024485833,
            "estimated_diameter_max": 0.2290819964
        },
        "feet": {
            "estimated_diameter_min": 540.9287043149,
            "estimated_diameter_max": 1209.5533538289
        }
    },
    "is_potentially_hazardous_asteroid": false,
    "close_approach_data": [
        {
            "close_approach_date": "2000-11-09",
            "close_approach_date_full": "2000-Nov-09 12:05",
            "epoch_date_close_approach": 973771500000,
            "relative_velocity": {
                "kilometers_per_second": "19.836579716",
                "kilometers_per_hour": "71411.6869776385",
                "miles_per_hour": "44372.4451667443"
            },
            "miss_distance": {
                "astronomical": "0.0973205115",
                "lunar": "37.8576789735",
                "kilometers": "14558941.227710505",
                "miles": "9046506.586814769"
            },
            "orbiting_body": "Earth"
        }
    ],
    "orbital_data": {
        "orbit_id": "12",
        "orbit_determination_date": "2017-04-06 09:16:44",
        "first_observation_date": "2000-11-01",
        "last_observation_date": "2000-11-05",
        "data_arc_in_days": 4,
        "observations_used": 12,
        "orbit_uncertainty": "9",
        "minimum_orbit_intersection": ".0514813",
        "jupiter_tisserand_invariant": "3.371",
        "epoch_osculation": "2451850.5",
        "eccentricity": ".7377913281739418",
        "semi_major_axis": "2.060408000788583",
        "inclination": "5.290905970313169",
        "ascending_node_longitude": "8.650330105493838",
        "orbital_period": "1080.259932908917",
        "perihelion_distance": ".5402568453065584",
        "perihelion_argument": "128.4835978021907",
        "aphelion_distance": "3.580559156270609",
        "perihelion_time": "2451904.077631687901",
        "mean_anomaly": "342.1450867332403",
        "mean_motion": ".3332531264309641",
        "equinox": "J2000",
        "orbit_class": {
            "orbit_class_type": "APO",
            "orbit_class_description": "Near-Earth asteroid orbits which cross the Earth’s orbit similar to that of 1862 Apollo",
            "orbit_class_range": "a (semi-major axis) > 1.0 AU; q (perihelion) < 1.017 AU"
        }
    },
    "is_sentry_object": false
}